0052P         2029 05  9.5930  1.771822  0.541194  139.6362  336.7445   10.2400  20251118  13.5  6.0  52P/Harrington-Abell                                     MPEC 2023-XP6
0053P         2028 12 25.6187  2.448664  0.549909  134.3242  148.8501    6.6036  20251118   7.7  4.8  53P/VanBiesbroeck                                        MPEC 2023-TM6
0054P         2024 09  4.5653  2.170540  0.428071    2.2977  358.5647    6.0658  20251118  10.0  6.0  54P/deVico-Swift-NEAT                                    MPC181188
0056P         2027 12 19.6052  2.489790  0.508222   44.2351  345.8750    8.1550  20251118   8.5  6.0  56P/Slaughter-Burnham                                    MPEC 2023-TM6
0057P         2028 03  4.1829  1.714102  0.501739  115.0836  188.7118    2.8545  20251118  12.5  6.0  57P/duToit-Neujmin-Delporte                              MPC188416
0059P         2028 03 15.5678  2.342023  0.477033  127.6922  312.7265    9.3572  20251118   7.0  6.0  59P/Kearns-Kwee                                          MPEC 2023-A50
0060P         2025 07 20.6031  1.645718  0.533693  216.9120  267.3954    3.5798  20251118  11.5  6.0  60P/Tsuchinshan                                          MPC182887
0061P         2022 10 23.1648  2.130276  0.422860  221.7178  162.9571    5.9959  20251118   6.0 10.0  61P/Shajn-Schaldach                                      MPEC 2024-JU4
0062P         2023 12 25.2708  1.265155  0.624741   47.3425   68.6632    4.7364  20251118   8.0 10.0  62P/Tsuchinshan                                          MPC182887
0063P         2026 07  6.1684  1.974549  0.650954  168.7356  357.7658   19.6160  20251118  10.5  6.0  63P/Wild                                                 MPEC 2025-UQ3
0065P         2025 06 16.3663  2.926180  0.248090  213.6535   61.9726    9.1750  20251118   5.0  6.0  65P/Gunn                                                 MPEC 2025-V36
0066P         2033 04 25.3179  1.305611  0.784925  257.3538   21.8516   18.6461  20251118  12.0  3.6  66P/duToit                                               MPEC 2021-F20
0067P         2028 04  9.2896  1.211466  0.649734   22.2248   36.3058    3.8675  20251118  11.0  4.0  67P/Churyumov-Gerasimenko                                MPEC 2024-C04
0068P         2030 11 27.0165  1.808774  0.635631  153.2012  175.0966   11.0972  20251118  10.0  4.0  68P/Klemola                                              MPEC 2023-HD1
0069P         2026 11 12.4125  2.270716  0.414687  343.5270  104.8076   22.0612  20251118   9.5 12.0  69P/Taylor                                               MPEC 2024-C04
0070P         2028 11 20.8802  2.003208  0.454916    1.8062  119.2360    6.6036  20251118  11.0  6.0  70P/Kojima                                               MPEC 2023-VM5
0071P         2023 01 18.8240  1.643309  0.483640  210.7056   59.0264    9.2245  20251118   9.8  6.0  71P/Clark                                                MPC181188
0073P     bt  2028 01 21.0434  0.941909  0.693974   77.6835  190.5630   10.6098  20251118  11.5  6.0  73P-BT/Schwassmann-Wachmann                              MPC106348
0074P         2026 04  6.8976  4.835804  0.054080   59.7871   51.7579    6.0183  20251118   5.0  6.0  74P/Smirnova-Chernykh                                    MPC188416
0076P         2026 04 13.5694  1.596617  0.539454    0.0207   84.1097   30.4885  20251118   8.0 12.0  76P/West-Kohoutek-Ikemura                                MPEC 2022-K19
0077P         2023 04  2.8852  2.345766  0.351956  196.5978   14.7478   24.3292  20251118   7.0  8.0  77P/Longmore                                             MPEC 2025-UQ3
0078P         2026 06 25.0707  2.004583  0.462991  192.7800  210.4972    6.2572  20251118   5.5  8.0  78P/Gehrels                                              MPEC 2025-VD2
0079P         2023 09 30.3889  1.119553  0.619483  281.7577  280.4941    3.1488  20251118  16.0  4.0  79P/duToit-Hartley                                       MPEC 2024-PC5
0080P         2022 12  7.9715  1.617748  0.597687  339.2566  259.7711   29.9278  20251118   9.0  8.0  80P/Peters-Hartley                                       MPEC 2024-Q20
0081P         2022 12 16.0197  1.595025  0.537828   41.5442  136.1041    3.2386  20251118   7.0  6.0  81P/Wild                                                 MPEC 2024-RQ6
0082P         2026 11 15.6353  3.624155  0.123104  226.4421  239.2153    1.1294  20251118   5.0  8.0  82P/Gehrels                                              MPC133426
0084P         2027 02 12.6682  1.719558  0.515622  281.6839  108.1403    7.5531  20251118   9.5  8.0  84P/Giclas                                               MPEC 2020-FB5
0086P         2029 01 21.6263  2.334603  0.360760  181.0082   72.0897   15.4778  20251118  11.0  6.0  86P/Wild                                                 MPEC 2022-YB4
0087P         2029 04  2.1913  3.445966  0.212889   51.7108  184.3664    2.6624  20251118   7.2 10.0  87P/Bus                                                  MPEC 2020-SI8
0088P         2026 03 18.7786  1.357769  0.563258  235.8718   56.6694    4.3820  20251118  11.0  6.0  88P/Howell                                               MPC188417
0089P         2024 03 26.5411  2.223676  0.407254  250.4586   41.3430   12.0688  20251118  11.5  6.0  89P/Russell                                              MPEC 2025-VD2
0090P         2032 05 18.0021  2.964783  0.510364   29.2085   13.1733    9.6363  20251118   8.5  6.0  90P/Gehrels                                              MPEC 2022-K19
0091P         2028 10 25.4753  3.105142  0.252830  356.9722  242.1237   16.0172  20251118   7.5  6.0  91P/Russell                                              MPEC 2023-VM5
0092P         2027 07 15.4535  1.817637  0.659951  163.7696  181.3559   19.4753  20251118  12.0  6.0  92P/Sanguin                                              MPEC 2014-J58
0093P         2026 05  2.9382  1.688439  0.613880   75.0383  339.5493   12.2104  20251118   9.5  6.0  93P/Lovas                                                MPEC 2025-VD2
0094P         2023 05 21.3510  2.224631  0.366152   92.3770   70.8424    6.1873  20251118   9.0  6.0  94P/Russell                                              MPC188417
0096P         2028 05 11.9403  0.116012  0.961725   14.7389   93.9626   57.5861  20251118  13.0  4.8  96P/Machholz                                             MPC182887
0096P      b  2028 05 10.6976  0.115891  0.961752   94.0474   14.5315   57.5069  20251118  13.0  4.8  96P-B/Machholz                                           MPC106348
0097P         2022 02 15.8343  2.577492  0.459746  230.2252  184.0677   17.9340  20251118   5.5  6.0  97P/Metcalf-Brewington                                   MPEC 2024-GJ3
0098P         2028 05  6.3385  1.607824  0.573295  157.9009  114.4549   10.7643  20251118   9.0  8.0  98P/Takamizawa                                           MPEC 2021-W31
0099P         2022 04  8.9475  4.698309  0.228909  174.5099   28.0538    4.3393  20251118   4.5  6.0  99P/Kowal                                                MPEC 2024-R10
0100P         2028 12 16.4217  2.019126  0.411376  181.9031   37.6858   25.5679  20251118   9.0  8.0  100P/Hartley                                             MPC186635
0101P         2020 01 12.6085  2.354729  0.595316  278.0047  116.1146    5.0485  20251118  10.0  4.8  101P/Chernykh                                            MPEC 2024-R10
0102P         2028 07 10.8710  2.079209  0.455815   20.6680  339.3888   25.8504  20251118   6.5  8.0  102P/Shoemaker                                           MPEC 2022-C56
0103P         2023 10 12.3468  1.065875  0.693366  181.3333  219.7604   13.6053  20251118   8.5  8.0  103P/Hartley                                             MPC184417
0104P         2027 10 12.9016  1.072093  0.665864  227.3239  207.1697    5.7002  20251118  16.0  4.0  104P/Kowal                                               MPEC 2023-G31
0105P         2025 01 22.7171  2.051855  0.409156   46.3186  192.3886    9.1677  20251118  11.5  6.0  105P/SingerBrewster                                      MPC188417
0106P         2028 12 12.2804  1.532460  0.593366  353.8010   48.8659   19.5296  20251118  14.0  4.8  106P/Schuster                                            MPEC 2024-R10
0108P         2028 12  8.6323  1.664224  0.555517  354.5370   50.3011   11.4301  20251118   8.0 12.0  108P/Ciffreo                                             MPEC 2022-P82
0110P         2028 08 22.3925  2.452989  0.319254  167.5828  287.4819   11.7119  20251118   1.0 12.0  110P/Hartley                                             MPEC 2023-KD6
0111P         2029 12  6.8844  3.708029  0.107155    1.5027   89.8101    4.2261  20251118   5.0  8.0  111P/Helin-Roman-Crockett                                MPC 75718
0112P         2026 09 21.8313  1.441173  0.590795   21.5683   31.8039   24.2015  20251118  14.0  6.0  112P/Urata-Niijima                                       MPEC 2021-S45
0113P         2022 06  1.7866  2.145776  0.419519  115.7597  306.6132    5.2878  20251118  13.5  4.0  113P/Spitaler                                            MPEC 2024-JU4
0114P         2026 09 14.9740  1.570908  0.556137  172.8303  271.0250   18.3036  20251118  11.5  6.0  114P/Wiseman-Skiff                                       MPEC 2023-A50
0115P         2029 05 23.4533  2.056645  0.518377  120.9305  175.9383   11.6892  20251118  10.5  6.0  115P/Maury                                               MPEC 2023-J29
0116P         2029 01 17.6654  2.192619  0.370916  173.1499   20.9584    3.6050  20251118   2.5 10.0  116P/Wild                                                MPEC 2024-RQ6
0117P         2022 07 10.7292  3.089239  0.250872  224.9199   58.7863    8.6622  20251118   2.5  8.0  117P/Helin-Roman-Alu                                     MPC182887
0118P         2022 11 24.9020  1.829250  0.453801  314.9722  142.0464   10.0927  20251118  12.0  4.0  118P/Shoemaker-Levy                                      MPC186635
